COSMOS 1892             
1 18421U 87088A   25309.11839103  .00237768  20068-4  65564-3 0  9994
2 18421  82.4687  86.1175 0005524 300.2338  59.8389 15.93819851 85292
SL-14 R/B               
1 18749U 88001B   25309.25690296  .00000631  00000+0  70412-4 0  9991
2 18749  82.5107 312.4104 0016590 291.8998  68.0453 14.85361527 23559
COSMOS 1933             
1 18958U 88020A   25309.28407546  .00004439  00000+0  22541-3 0  9990
2 18958  82.5165  13.8725 0002835 270.7236  89.3672 15.16663311 31362
SL-3 R/B                
1 19046U 88032B   25309.23366286  .00006961  00000+0  34141-3 0  9993
2 19046  97.5039 288.2367 0025505 310.7285  49.1734 15.18148671 33213
SL-16 R/B               
1 19120U 88039B   25309.26014034  .00000073  00000+0  57157-4 0  9998
2 19120  71.0150 331.6483 0021569 177.3141 182.8105 14.19586432940724
COSMOS 1953             
1 19210U 88050A   25309.27756433  .00006359  00000+0  24336-3 0  9993
2 19210  82.5062 283.1573 0011269 191.5511 168.5470 15.26317596 18790
SL-8 R/B                
1 19257U 88053B   25309.27552213  .00000332  00000+0  11638-3 0  9993
2 19257  74.0480 341.7704 0020380 197.0724 237.1439 14.38824493958702
COSMOS 1975             
1 19573U 88093A   25309.27443944  .00010903  00000+0  42769-3 0  9992
2 19573  82.5221 242.3056 0009439 246.6955 113.3290 15.25574636   420
SL-14 R/B               
1 19574U 88093B   25309.06430343  .00000494  00000+0  54187-4 0  9991
2 19574  82.5306 159.0230 0022320  90.3939  22.8817 14.85490605982531
SL-16 R/B               
1 19650U 88102B   25309.02139504 -.00000090  00000+0 -21315-4 0  9999
2 19650  71.0010  53.8032 0015176 209.3627 150.6645 14.16130920909240
INTERCOSMOS 24          
1 20261U 89080A   25309.16290120  .00000671  00000+0  19748-3 0  9991
2 20261  82.6086 185.3866 1187802 221.7029 128.7375 12.59354726651122
SL-14 R/B               
1 20262U 89080C   25309.21894321  .00000293  00000+0  78475-4 0  9994
2 20262  82.5918 253.0988 1231460 109.2941 264.5276 12.50373152644594
