CCSDS_OMM_VERS = 2.0
CREATION_DATE  = 
ORIGINATOR     = 

OBJECT_NAME    = COSMOS 1892
OBJECT_ID      = 1987-088A
CENTER_NAME    = EARTH
REF_FRAME      = TEME
TIME_SYSTEM    = UTC
MEAN_ELEMENT_THEORY = SGP/SGP4

EPOCH          = 2025-11-05T02:50:28.984992
MEAN_MOTION    = 15.93819851
ECCENTRICITY   = .00055241
INCLINATION    = 82.4687
RA_OF_ASC_NODE = 86.1175
ARG_OF_PERICENTER = 300.2338
MEAN_ANOMALY   = 59.8389

EPHEMERIS_TYPE = 0
CLASSIFICATION_TYPE = U
NORAD_CAT_ID   = 18421
ELEMENT_SET_NO = 999
REV_AT_EPOCH   = 8529
BSTAR          = .65564466E-3
MEAN_MOTION_DOT = .237768E-2
MEAN_MOTION_DDOT = .20067798E-4

CCSDS_OMM_VERS = 2.0
CREATION_DATE  = 
ORIGINATOR     = 

OBJECT_NAME    = SL-14 R/B
OBJECT_ID      = 1988-001B
CENTER_NAME    = EARTH
REF_FRAME      = TEME
TIME_SYSTEM    = UTC
MEAN_ELEMENT_THEORY = SGP/SGP4

EPOCH          = 2025-11-05T06:09:56.415744
MEAN_MOTION    = 14.85361527
ECCENTRICITY   = .00165907
INCLINATION    = 82.5107
RA_OF_ASC_NODE = 312.4104
ARG_OF_PERICENTER = 291.8998
MEAN_ANOMALY   = 68.0453

EPHEMERIS_TYPE = 0
CLASSIFICATION_TYPE = U
NORAD_CAT_ID   = 18749
ELEMENT_SET_NO = 999
REV_AT_EPOCH   = 2355
BSTAR          = .7041205E-4
MEAN_MOTION_DOT = .631E-5
MEAN_MOTION_DDOT = 0

CCSDS_OMM_VERS = 2.0
CREATION_DATE  = 
ORIGINATOR     = 

OBJECT_NAME    = COSMOS 1933
OBJECT_ID      = 1988-020A
CENTER_NAME    = EARTH
REF_FRAME      = TEME
TIME_SYSTEM    = UTC
MEAN_ELEMENT_THEORY = SGP/SGP4

EPOCH          = 2025-11-05T06:49:04.119744
MEAN_MOTION    = 15.16663311
ECCENTRICITY   = .0002835
INCLINATION    = 82.5165
RA_OF_ASC_NODE = 13.8725
ARG_OF_PERICENTER = 270.7236
MEAN_ANOMALY   = 89.3672

EPHEMERIS_TYPE = 0
CLASSIFICATION_TYPE = U
NORAD_CAT_ID   = 18958
ELEMENT_SET_NO = 999
REV_AT_EPOCH   = 3136
BSTAR          = .22540657E-3
MEAN_MOTION_DOT = .4439E-4
MEAN_MOTION_DDOT = 0

CCSDS_OMM_VERS = 2.0
CREATION_DATE  = 
ORIGINATOR     = 

OBJECT_NAME    = SL-3 R/B
OBJECT_ID      = 1988-032B
CENTER_NAME    = EARTH
REF_FRAME      = TEME
TIME_SYSTEM    = UTC
MEAN_ELEMENT_THEORY = SGP/SGP4

EPOCH          = 2025-11-05T05:36:28.471104
MEAN_MOTION    = 15.18148671
ECCENTRICITY   = .00255053
INCLINATION    = 97.5039
RA_OF_ASC_NODE = 288.2367
ARG_OF_PERICENTER = 310.7285
MEAN_ANOMALY   = 49.1734

EPHEMERIS_TYPE = 0
CLASSIFICATION_TYPE = U
NORAD_CAT_ID   = 19046
ELEMENT_SET_NO = 999
REV_AT_EPOCH   = 3321
BSTAR          = .34141293E-3
MEAN_MOTION_DOT = .6961E-4
MEAN_MOTION_DDOT = 0

CCSDS_OMM_VERS = 2.0
CREATION_DATE  = 
ORIGINATOR     = 

OBJECT_NAME    = SL-16 R/B
OBJECT_ID      = 1988-039B
CENTER_NAME    = EARTH
REF_FRAME      = TEME
TIME_SYSTEM    = UTC
MEAN_ELEMENT_THEORY = SGP/SGP4

EPOCH          = 2025-11-05T06:14:36.125376
MEAN_MOTION    = 14.19586432
ECCENTRICITY   = .00215697
INCLINATION    = 71.0150
RA_OF_ASC_NODE = 331.6483
ARG_OF_PERICENTER = 177.3141
MEAN_ANOMALY   = 182.8105

EPHEMERIS_TYPE = 0
CLASSIFICATION_TYPE = U
NORAD_CAT_ID   = 19120
ELEMENT_SET_NO = 999
REV_AT_EPOCH   = 94072
BSTAR          = .57157127E-4
MEAN_MOTION_DOT = .73E-6
MEAN_MOTION_DDOT = 0

CCSDS_OMM_VERS = 2.0
CREATION_DATE  = 
ORIGINATOR     = 

OBJECT_NAME    = COSMOS 1953
OBJECT_ID      = 1988-050A
CENTER_NAME    = EARTH
REF_FRAME      = TEME
TIME_SYSTEM    = UTC
MEAN_ELEMENT_THEORY = SGP/SGP4

EPOCH          = 2025-11-05T06:39:41.558112
MEAN_MOTION    = 15.26317596
ECCENTRICITY   = .00112693
INCLINATION    = 82.5062
RA_OF_ASC_NODE = 283.1573
ARG_OF_PERICENTER = 191.5511
MEAN_ANOMALY   = 168.5470

EPHEMERIS_TYPE = 0
CLASSIFICATION_TYPE = U
NORAD_CAT_ID   = 19210
ELEMENT_SET_NO = 999
REV_AT_EPOCH   = 1879
BSTAR          = .24336103E-3
MEAN_MOTION_DOT = .6359E-4
MEAN_MOTION_DDOT = 0

CCSDS_OMM_VERS = 2.0
CREATION_DATE  = 
ORIGINATOR     = 

OBJECT_NAME    = SL-8 R/B
OBJECT_ID      = 1988-053B
CENTER_NAME    = EARTH
REF_FRAME      = TEME
TIME_SYSTEM    = UTC
MEAN_ELEMENT_THEORY = SGP/SGP4

EPOCH          = 2025-11-05T06:36:45.112032
MEAN_MOTION    = 14.38824493
ECCENTRICITY   = .00203805
INCLINATION    = 74.0480
RA_OF_ASC_NODE = 341.7704
ARG_OF_PERICENTER = 197.0724
MEAN_ANOMALY   = 237.1439

EPHEMERIS_TYPE = 0
CLASSIFICATION_TYPE = U
NORAD_CAT_ID   = 19257
ELEMENT_SET_NO = 999
REV_AT_EPOCH   = 95870
BSTAR          = .11637547E-3
MEAN_MOTION_DOT = .332E-5
MEAN_MOTION_DDOT = 0

CCSDS_OMM_VERS = 2.0
CREATION_DATE  = 
ORIGINATOR     = 

OBJECT_NAME    = COSMOS 1975
OBJECT_ID      = 1988-093A
CENTER_NAME    = EARTH
REF_FRAME      = TEME
TIME_SYSTEM    = UTC
MEAN_ELEMENT_THEORY = SGP/SGP4

EPOCH          = 2025-11-05T06:35:11.567616
MEAN_MOTION    = 15.25574636
ECCENTRICITY   = .00094391
INCLINATION    = 82.5221
RA_OF_ASC_NODE = 242.3056
ARG_OF_PERICENTER = 246.6955
MEAN_ANOMALY   = 113.3290

EPHEMERIS_TYPE = 0
CLASSIFICATION_TYPE = U
NORAD_CAT_ID   = 19573
ELEMENT_SET_NO = 999
REV_AT_EPOCH   = 42
BSTAR          = .42768921E-3
MEAN_MOTION_DOT = .10903E-3
MEAN_MOTION_DDOT = 0

CCSDS_OMM_VERS = 2.0
CREATION_DATE  = 
ORIGINATOR     = 

OBJECT_NAME    = SL-14 R/B
OBJECT_ID      = 1988-093B
CENTER_NAME    = EARTH
REF_FRAME      = TEME
TIME_SYSTEM    = UTC
MEAN_ELEMENT_THEORY = SGP/SGP4

EPOCH          = 2025-11-05T01:32:35.816352
MEAN_MOTION    = 14.85490605
ECCENTRICITY   = .00223201
INCLINATION    = 82.5306
RA_OF_ASC_NODE = 159.0230
ARG_OF_PERICENTER = 90.3939
MEAN_ANOMALY   = 22.8817

EPHEMERIS_TYPE = 0
CLASSIFICATION_TYPE = U
NORAD_CAT_ID   = 19574
ELEMENT_SET_NO = 999
REV_AT_EPOCH   = 98253
BSTAR          = .54187284E-4
MEAN_MOTION_DOT = .494E-5
MEAN_MOTION_DDOT = 0

CCSDS_OMM_VERS = 2.0
CREATION_DATE  = 
ORIGINATOR     = 

OBJECT_NAME    = SL-16 R/B
OBJECT_ID      = 1988-102B
CENTER_NAME    = EARTH
REF_FRAME      = TEME
TIME_SYSTEM    = UTC
MEAN_ELEMENT_THEORY = SGP/SGP4

EPOCH          = 2025-11-05T00:30:48.531456
MEAN_MOTION    = 14.16130920
ECCENTRICITY   = .00151763
INCLINATION    = 71.0010
RA_OF_ASC_NODE = 53.8032
ARG_OF_PERICENTER = 209.3627
MEAN_ANOMALY   = 150.6645

EPHEMERIS_TYPE = 0
CLASSIFICATION_TYPE = U
NORAD_CAT_ID   = 19650
ELEMENT_SET_NO = 999
REV_AT_EPOCH   = 90924
BSTAR          = -.21315309E-4
MEAN_MOTION_DOT = -.9E-6
MEAN_MOTION_DDOT = 0

CCSDS_OMM_VERS = 2.0
CREATION_DATE  = 
ORIGINATOR     = 

OBJECT_NAME    = INTERCOSMOS 24
OBJECT_ID      = 1989-080A
CENTER_NAME    = EARTH
REF_FRAME      = TEME
TIME_SYSTEM    = UTC
MEAN_ELEMENT_THEORY = SGP/SGP4

EPOCH          = 2025-11-05T03:54:34.663680
MEAN_MOTION    = 12.59354726
ECCENTRICITY   = .11878027
INCLINATION    = 82.6086
RA_OF_ASC_NODE = 185.3866
ARG_OF_PERICENTER = 221.7029
MEAN_ANOMALY   = 128.7375

EPHEMERIS_TYPE = 0
CLASSIFICATION_TYPE = U
NORAD_CAT_ID   = 20261
ELEMENT_SET_NO = 999
REV_AT_EPOCH   = 65112
BSTAR          = .19747502E-3
MEAN_MOTION_DOT = .671E-5
MEAN_MOTION_DDOT = 0

CCSDS_OMM_VERS = 2.0
CREATION_DATE  = 
ORIGINATOR     = 

OBJECT_NAME    = SL-14 R/B
OBJECT_ID      = 1989-080C
CENTER_NAME    = EARTH
REF_FRAME      = TEME
TIME_SYSTEM    = UTC
MEAN_ELEMENT_THEORY = SGP/SGP4

EPOCH          = 2025-11-05T05:15:16.693344
MEAN_MOTION    = 12.50373152
ECCENTRICITY   = .12314609
INCLINATION    = 82.5918
RA_OF_ASC_NODE = 253.0988
ARG_OF_PERICENTER = 109.2941
MEAN_ANOMALY   = 264.5276

EPHEMERIS_TYPE = 0
CLASSIFICATION_TYPE = U
NORAD_CAT_ID   = 20262
ELEMENT_SET_NO = 999
REV_AT_EPOCH   = 64459
BSTAR          = .78474991E-4
MEAN_MOTION_DOT = .293E-5
MEAN_MOTION_DDOT = 0

